KUIPER-00027            
1 63740U 25088S   25262.58339120  .00034023  00000+0  39725-2 0  9990
2 63740  51.8982 132.0142 0003739 325.5047 352.9892 14.84841441  5884
KUIPER-00028            
1 63741U 25088T   25262.58339120 -.00707501  00000+0 -75136-1 0  9996
2 63741  51.9145 130.1845 0002714 350.1947 124.0751 14.91123696  5471
KUIPER-00029            
1 63742U 25088U   25262.58339120  .00027416  00000+0  23018-2 0  9998
2 63742  51.8969 128.8875 0006357 292.0666 338.6897 14.98120938  4635
KUIPER-00030            
1 63743U 25088V   25262.38835634  .00001601  00000+0  23893-3 0  9998
2 63743  51.9008 148.0249 0012880 227.0646 132.9236 14.79956804 22263
KUIPER-00031            
1 63744U 25088W   25262.58339120  .00007621  00000+0  10274-2 0  9996
2 63744  51.8987 133.2462 0004749 249.8812 350.9947 14.79939936  5500
KUIPER-00032            
1 63745U 25088X   25262.61252090  .00010032  00000+0  35015-3 0  9992
2 63745  51.8734 126.7907 0004502 217.7725 142.2943 15.30191763 23296
KUIPER-00033            
1 63746U 25088Y   25262.03291897  .00002982  00000+0  41975-3 0  9994
2 63746  51.8993 165.6558 0003436 358.2314   1.8636 14.79960821 22185
KUIPER-00034            
1 63747U 25088Z   25262.58339120  .00042182  00000+0  27999-2 0  9992
2 63747  51.8847 126.7506 0002504 188.1214 167.0911 15.06820602  5511
